STARLINK-37191
1 68334U 26059P   26110.16668980 -.00060369  00000+0 -10847-2 0  9997
2 68334  53.1593 156.0923 0001335  98.9221 102.6021 15.49337239  5712
STARLINK-37217
1 68335U 26059Q   26110.16668980  .00047678  00000+0  86096-3 0  9994
2 68335  53.1592 156.1341 0001470  84.7475  96.0858 15.49279631  5716
STARLINK-37143
1 68336U 26059R   26110.16668980 -.01939045  00000+0 -41185-1 0  9994
2 68336  53.1597 155.9054 0001054 116.7084 176.5306 15.47685810  5710
STARLINK-36237
1 68337U 26059S   26110.16668980 -.02045361  00000+0 -38382-1 0  9990
2 68337  53.1591 155.6448 0001216  73.5930 348.6951 15.51342741  5715
STARLINK-36254
1 68338U 26059T   26110.16668980 -.01736788  00000+0 -32039-1 0  9993
2 68338  53.1600 155.5968 0000587  79.2715   6.8384 15.51817830  5716
STARLINK-37200
1 68339U 26059U   26110.16668980 -.02149749  00000+0 -40113-1 0  9992
2 68339  53.1594 155.6241 0001721  84.2160 348.5068 15.51667220  5716
STARLINK-37185
1 68340U 26059V   26110.16668980  .00044699  00000+0  80780-3 0  9994
2 68340  53.1591 155.8021 0000941  52.5045 291.8573 15.49286124  5714
STARLINK-37181
1 68341U 26059W   26110.16668980  .00064389  00000+0  11594-2 0  9999
2 68341  53.1590 155.7272 0001611  47.1752 334.0492 15.49230600  5719
STARLINK-37192
1 68342U 26059X   26108.00004630  .00072885  00000+0  13084-2 0  9992
2 68342  53.1592 167.3197 0000699  75.3062 206.2854 15.49263823  5365
STARLINK-37158
1 68343U 26059Y   26110.16668980  .00047529  00000+0  85785-3 0  9992
2 68343  53.1597 155.9126 0000831  70.4866 218.9243 15.49295147  5717
STARLINK-36380
1 68344U 26059Z   26110.16668980 -.01875072  00000+0 -46766-1 0  9992
2 68344  53.1599 156.1149 0001583  79.0328 110.9602 15.42915637  5717
STARLINK-37214
1 68345U 26059AA  26110.16668980  .00045527  00000+0  82252-3 0  9996
2 68345  53.1595 155.8710 0001586  84.4666 225.1781 15.49286109  5711
STARLINK-37169
1 68346U 26059AB  26110.16668980  .00044660  00000+0  80716-3 0  9997
2 68346  53.1597 155.9831 0001646  65.3160 188.8574 15.49283792  5713
STARLINK-37136
1 68347U 26059AC  26110.16668980 -.01010894  00000+0 -19594-1 0  9997
2 68347  53.1589 155.6170 0001126 103.6859 330.5899 15.49788882  5718
