[
  {
    "OBJECT_NAME": "STARLINK-37191",
    "OBJECT_ID": "2026-059P",
    "EPOCH": "2026-04-20T04:00:01.998720",
    "MEAN_MOTION": 15.49337239,
    "ECCENTRICITY": 0.0001335,
    "INCLINATION": 53.1593,
    "RA_OF_ASC_NODE": 156.0923,
    "ARG_OF_PERICENTER": 98.9221,
    "MEAN_ANOMALY": 102.6021,
    "EPHEMERIS_TYPE": 0,
    "CLASSIFICATION_TYPE": "U",
    "NORAD_CAT_ID": 68334,
    "ELEMENT_SET_NO": 999,
    "REV_AT_EPOCH": 571,
    "BSTAR": -0.0010847,
    "MEAN_MOTION_DOT": -0.00060369,
    "MEAN_MOTION_DDOT": 0
  },
  {
    "OBJECT_NAME": "STARLINK-37217",
    "OBJECT_ID": "2026-059Q",
    "EPOCH": "2026-04-20T04:00:01.998720",
    "MEAN_MOTION": 15.49279631,
    "ECCENTRICITY": 0.000147,
    "INCLINATION": 53.1592,
    "RA_OF_ASC_NODE": 156.1341,
    "ARG_OF_PERICENTER": 84.7475,
    "MEAN_ANOMALY": 96.0858,
    "EPHEMERIS_TYPE": 0,
    "CLASSIFICATION_TYPE": "U",
    "NORAD_CAT_ID": 68335,
    "ELEMENT_SET_NO": 999,
    "REV_AT_EPOCH": 571,
    "BSTAR": 0.00086096,
    "MEAN_MOTION_DOT": 0.00047678,
    "MEAN_MOTION_DDOT": 0
  },
  {
    "OBJECT_NAME": "STARLINK-37143",
    "OBJECT_ID": "2026-059R",
    "EPOCH": "2026-04-20T04:00:01.998720",
    "MEAN_MOTION": 15.4768581,
    "ECCENTRICITY": 0.0001054,
    "INCLINATION": 53.1597,
    "RA_OF_ASC_NODE": 155.9054,
    "ARG_OF_PERICENTER": 116.7084,
    "MEAN_ANOMALY": 176.5306,
    "EPHEMERIS_TYPE": 0,
    "CLASSIFICATION_TYPE": "U",
    "NORAD_CAT_ID": 68336,
    "ELEMENT_SET_NO": 999,
    "REV_AT_EPOCH": 571,
    "BSTAR": -0.041185,
    "MEAN_MOTION_DOT": -0.01939045,
    "MEAN_MOTION_DDOT": 0
  },
  {
    "OBJECT_NAME": "STARLINK-36237",
    "OBJECT_ID": "2026-059S",
    "EPOCH": "2026-04-20T04:00:01.998720",
    "MEAN_MOTION": 15.51342741,
    "ECCENTRICITY": 0.0001216,
    "INCLINATION": 53.1591,
    "RA_OF_ASC_NODE": 155.6448,
    "ARG_OF_PERICENTER": 73.593,
    "MEAN_ANOMALY": 348.6951,
    "EPHEMERIS_TYPE": 0,
    "CLASSIFICATION_TYPE": "U",
    "NORAD_CAT_ID": 68337,
    "ELEMENT_SET_NO": 999,
    "REV_AT_EPOCH": 571,
    "BSTAR": -0.038382,
    "MEAN_MOTION_DOT": -0.02045361,
    "MEAN_MOTION_DDOT": 0
  },
  {
    "OBJECT_NAME": "STARLINK-36254",
    "OBJECT_ID": "2026-059T",
    "EPOCH": "2026-04-20T04:00:01.998720",
    "MEAN_MOTION": 15.5181783,
    "ECCENTRICITY": 5.87e-05,
    "INCLINATION": 53.16,
    "RA_OF_ASC_NODE": 155.5968,
    "ARG_OF_PERICENTER": 79.2715,
    "MEAN_ANOMALY": 6.8384,
    "EPHEMERIS_TYPE": 0,
    "CLASSIFICATION_TYPE": "U",
    "NORAD_CAT_ID": 68338,
    "ELEMENT_SET_NO": 999,
    "REV_AT_EPOCH": 571,
    "BSTAR": -0.032039,
    "MEAN_MOTION_DOT": -0.01736788,
    "MEAN_MOTION_DDOT": 0
  },
  {
    "OBJECT_NAME": "STARLINK-37200",
    "OBJECT_ID": "2026-059U",
    "EPOCH": "2026-04-20T04:00:01.998720",
    "MEAN_MOTION": 15.5166722,
    "ECCENTRICITY": 0.0001721,
    "INCLINATION": 53.1594,
    "RA_OF_ASC_NODE": 155.6241,
    "ARG_OF_PERICENTER": 84.216,
    "MEAN_ANOMALY": 348.5068,
    "EPHEMERIS_TYPE": 0,
    "CLASSIFICATION_TYPE": "U",
    "NORAD_CAT_ID": 68339,
    "ELEMENT_SET_NO": 999,
    "REV_AT_EPOCH": 571,
    "BSTAR": -0.040113,
    "MEAN_MOTION_DOT": -0.02149749,
    "MEAN_MOTION_DDOT": 0
  },
  {
    "OBJECT_NAME": "STARLINK-37185",
    "OBJECT_ID": "2026-059V",
    "EPOCH": "2026-04-20T04:00:01.998720",
    "MEAN_MOTION": 15.49286124,
    "ECCENTRICITY": 9.41e-05,
    "INCLINATION": 53.1591,
    "RA_OF_ASC_NODE": 155.8021,
    "ARG_OF_PERICENTER": 52.5045,
    "MEAN_ANOMALY": 291.8573,
    "EPHEMERIS_TYPE": 0,
    "CLASSIFICATION_TYPE": "U",
    "NORAD_CAT_ID": 68340,
    "ELEMENT_SET_NO": 999,
    "REV_AT_EPOCH": 571,
    "BSTAR": 0.0008078,
    "MEAN_MOTION_DOT": 0.00044699,
    "MEAN_MOTION_DDOT": 0
  },
  {
    "OBJECT_NAME": "STARLINK-37181",
    "OBJECT_ID": "2026-059W",
    "EPOCH": "2026-04-20T04:00:01.998720",
    "MEAN_MOTION": 15.492306,
    "ECCENTRICITY": 0.0001611,
    "INCLINATION": 53.159,
    "RA_OF_ASC_NODE": 155.7272,
    "ARG_OF_PERICENTER": 47.1752,
    "MEAN_ANOMALY": 334.0492,
    "EPHEMERIS_TYPE": 0,
    "CLASSIFICATION_TYPE": "U",
    "NORAD_CAT_ID": 68341,
    "ELEMENT_SET_NO": 999,
    "REV_AT_EPOCH": 571,
    "BSTAR": 0.0011594,
    "MEAN_MOTION_DOT": 0.00064389,
    "MEAN_MOTION_DDOT": 0
  },
  {
    "OBJECT_NAME": "STARLINK-37192",
    "OBJECT_ID": "2026-059X",
    "EPOCH": "2026-04-18T00:00:04.000320",
    "MEAN_MOTION": 15.49263823,
    "ECCENTRICITY": 6.994e-05,
    "INCLINATION": 53.1592,
    "RA_OF_ASC_NODE": 167.3197,
    "ARG_OF_PERICENTER": 75.3062,
    "MEAN_ANOMALY": 206.2854,
    "EPHEMERIS_TYPE": 0,
    "CLASSIFICATION_TYPE": "U",
    "NORAD_CAT_ID": 68342,
    "ELEMENT_SET_NO": 999,
    "REV_AT_EPOCH": 536,
    "BSTAR": 0.0013083994,
    "MEAN_MOTION_DOT": 0.00072885,
    "MEAN_MOTION_DDOT": 0
  },
  {
    "OBJECT_NAME": "STARLINK-37158",
    "OBJECT_ID": "2026-059Y",
    "EPOCH": "2026-04-20T04:00:01.998720",
    "MEAN_MOTION": 15.49295147,
    "ECCENTRICITY": 8.31e-05,
    "INCLINATION": 53.1597,
    "RA_OF_ASC_NODE": 155.9126,
    "ARG_OF_PERICENTER": 70.4866,
    "MEAN_ANOMALY": 218.9243,
    "EPHEMERIS_TYPE": 0,
    "CLASSIFICATION_TYPE": "U",
    "NORAD_CAT_ID": 68343,
    "ELEMENT_SET_NO": 999,
    "REV_AT_EPOCH": 571,
    "BSTAR": 0.00085785,
    "MEAN_MOTION_DOT": 0.00047529,
    "MEAN_MOTION_DDOT": 0
  },
  {
    "OBJECT_NAME": "STARLINK-36380",
    "OBJECT_ID": "2026-059Z",
    "EPOCH": "2026-04-20T04:00:01.998720",
    "MEAN_MOTION": 15.42915637,
    "ECCENTRICITY": 0.0001583,
    "INCLINATION": 53.1599,
    "RA_OF_ASC_NODE": 156.1149,
    "ARG_OF_PERICENTER": 79.0328,
    "MEAN_ANOMALY": 110.9602,
    "EPHEMERIS_TYPE": 0,
    "CLASSIFICATION_TYPE": "U",
    "NORAD_CAT_ID": 68344,
    "ELEMENT_SET_NO": 999,
    "REV_AT_EPOCH": 571,
    "BSTAR": -0.046766,
    "MEAN_MOTION_DOT": -0.01875072,
    "MEAN_MOTION_DDOT": 0
  },
  {
    "OBJECT_NAME": "STARLINK-37214",
    "OBJECT_ID": "2026-059AA",
    "EPOCH": "2026-04-20T04:00:01.998720",
    "MEAN_MOTION": 15.49286109,
    "ECCENTRICITY": 0.0001586,
    "INCLINATION": 53.1595,
    "RA_OF_ASC_NODE": 155.871,
    "ARG_OF_PERICENTER": 84.4666,
    "MEAN_ANOMALY": 225.1781,
    "EPHEMERIS_TYPE": 0,
    "CLASSIFICATION_TYPE": "U",
    "NORAD_CAT_ID": 68345,
    "ELEMENT_SET_NO": 999,
    "REV_AT_EPOCH": 571,
    "BSTAR": 0.00082252,
    "MEAN_MOTION_DOT": 0.00045527,
    "MEAN_MOTION_DDOT": 0
  },
  {
    "OBJECT_NAME": "STARLINK-37169",
    "OBJECT_ID": "2026-059AB",
    "EPOCH": "2026-04-20T04:00:01.998720",
    "MEAN_MOTION": 15.49283792,
    "ECCENTRICITY": 0.0001646,
    "INCLINATION": 53.1597,
    "RA_OF_ASC_NODE": 155.9831,
    "ARG_OF_PERICENTER": 65.316,
    "MEAN_ANOMALY": 188.8574,
    "EPHEMERIS_TYPE": 0,
    "CLASSIFICATION_TYPE": "U",
    "NORAD_CAT_ID": 68346,
    "ELEMENT_SET_NO": 999,
    "REV_AT_EPOCH": 571,
    "BSTAR": 0.00080716,
    "MEAN_MOTION_DOT": 0.0004466,
    "MEAN_MOTION_DDOT": 0
  },
  {
    "OBJECT_NAME": "STARLINK-37136",
    "OBJECT_ID": "2026-059AC",
    "EPOCH": "2026-04-20T04:00:01.998720",
    "MEAN_MOTION": 15.49788882,
    "ECCENTRICITY": 0.0001126,
    "INCLINATION": 53.1589,
    "RA_OF_ASC_NODE": 155.617,
    "ARG_OF_PERICENTER": 103.6859,
    "MEAN_ANOMALY": 330.5899,
    "EPHEMERIS_TYPE": 0,
    "CLASSIFICATION_TYPE": "U",
    "NORAD_CAT_ID": 68347,
    "ELEMENT_SET_NO": 999,
    "REV_AT_EPOCH": 571,
    "BSTAR": -0.019594,
    "MEAN_MOTION_DOT": -0.01010894,
    "MEAN_MOTION_DDOT": 0
  }
]